2017-071P               
1 43050U 17071P   17345.16758445  .00014553  00000-0  39504-3 0  9990
2 43050  51.6394 236.5886 0000851 228.8865 131.1836 15.37824095   628
